[
    {
        "Altitude(m)": 624792.8070263207,
        "Argument of Periapsis(deg)": 0.0,
        "Eccentricity": 0.0,
        "Inclination(deg)": 60.0,
        "Latitude(deg)": -59.14719354136412,
        "Longitude(deg)": -80.97359403067652,
        "Mean Anomaly(deg)": -98.18179999999998,
        "RAAN(deg)": 125.00000000000001,
        "Satellite Name": "Test1 566",
        "Satellite Number": 566,
        "Semi-Major Axis(m)": 6980739.136638005,
        "Time(s)": 0
    },
    {
        "Altitude(m)": 624842.1989475604,
        "Argument of Periapsis(deg)": 0.00010418945913296404,
        "Eccentricity": 0.0,
        "Inclination(deg)": 60.0,
        "Latitude(deg)": -59.28927706980005,
        "Longitude(deg)": -79.84408644066956,
        "Mean Anomaly(deg)": -97.56169385453813,
        "RAAN(deg)": 124.99957995086027,
        "Satellite Name": "Test1 566",
        "Satellite Number": 566,
        "Semi-Major Axis(m)": 6980739.136638005,
        "Time(s)": 10
    }
]